{
    "links": {
        "self": "http://www.neowsapp.com/rest/v1/neo/3347494?api_key=iIulBulltgU6a56xZRHN4H3l9WmuAYTsLGpBGhQ2"
    },
    "id": "3347494",
    "neo_reference_id": "3347494",
    "name": "(2006 SV217)",
    "designation": "2006 SV217",
    "nasa_jpl_url": "http://ssd.jpl.nasa.gov/sbdb.cgi?sstr=3347494",
    "absolute_magnitude_h": 24.5,
    "estimated_diameter": {
        "kilometers": {
            "estimated_diameter_min": 0.0334622374,
            "estimated_diameter_max": 0.0748238376
        },
        "meters": {
            "estimated_diameter_min": 33.4622374455,
            "estimated_diameter_max": 74.8238376074
        },
        "miles": {
            "estimated_diameter_min": 0.0207924639,
            "estimated_diameter_max": 0.0464933628
        },
        "feet": {
            "estimated_diameter_min": 109.7842471007,
            "estimated_diameter_max": 245.4850393757
        }
    },
    "is_potentially_hazardous_asteroid": false,
    "close_approach_data": [
        {
            "close_approach_date": "1985-04-21",
            "close_approach_date_full": "1985-Apr-21 11:53",
            "epoch_date_close_approach": 482932380000,
            "relative_velocity": {
                "kilometers_per_second": "9.8209093929",
                "kilometers_per_hour": "35355.273814269",
                "miles_per_hour": "21968.3922208718"
            },
            "miss_distance": {
                "astronomical": "0.0153513082",
                "lunar": "5.9716588898",
                "kilometers": "2296523.008433534",
                "miles": "1426993.2268854092"
            },
            "orbiting_body": "Earth"
        },
        {
            "close_approach_date": "2006-03-05",
            "close_approach_date_full": "2006-Mar-05 15:02",
            "epoch_date_close_approach": 1141570920000,
            "relative_velocity": {
                "kilometers_per_second": "7.6871233436",
                "kilometers_per_hour": "27673.6440370495",
                "miles_per_hour": "17195.3262073544"
            },
            "miss_distance": {
                "astronomical": "0.4863207298",
                "lunar": "189.1787638922",
                "kilometers": "72752545.314925526",
                "miles": "45206335.4130672188"
            },
            "orbiting_body": "Earth"
        },
        {
            "close_approach_date": "2006-08-29",
            "close_approach_date_full": "2006-Aug-29 09:04",
            "epoch_date_close_approach": 1156842240000,
            "relative_velocity": {
                "kilometers_per_second": "8.0079546302",
                "kilometers_per_hour": "28828.6366685545",
                "miles_per_hour": "17912.9937121915"
            },
            "miss_distance": {
                "astronomical": "0.0503671166",
                "lunar": "19.5928083574",
                "kilometers": "7534813.361401642",
                "miles": "4681915.9194489796"
            },
            "orbiting_body": "Earth"
        }
    ],
    "orbital_data": {
        "orbit_id": "8",
        "orbit_determination_date": "2017-04-06 09:07:59",
        "first_observation_date": "2006-09-30",
        "last_observation_date": "2006-10-13",
        "data_arc_in_days": 13,
        "observations_used": 17,
        "orbit_uncertainty": "9",
        "minimum_orbit_intersection": ".00456631",
        "jupiter_tisserand_invariant": "4.905",
        "epoch_osculation": "2454012.5",
        "eccentricity": ".3467420362701394",
        "semi_major_axis": "1.313115950346913",
        "inclination": ".868773062753892",
        "ascending_node_longitude": "179.5624343645087",
        "orbital_period": "549.6079953556502",
        "perihelion_distance": ".8578034518648252",
        "perihelion_argument": "97.34616053227245",
        "aphelion_distance": "1.768428448829001",
        "perihelion_time": "2453929.544247602935",
        "mean_anomaly": "54.33703860806904",
        "mean_motion": ".6550123052104522",
        "equinox": "J2000",
        "orbit_class": {
            "orbit_class_type": "APO",
            "orbit_class_description": "Near-Earth asteroid orbits which cross the Earth’s orbit similar to that of 1862 Apollo",
            "orbit_class_range": "a (semi-major axis) > 1.0 AU; q (perihelion) < 1.017 AU"
        }
    },
    "is_sentry_object": false
}